FLOCK 3P-62             
1 42036U 17008CS  17302.88209074  .00004038  00000-0  17183-3 0  9990
2 42036  97.4816   3.9318 0009664 103.9695 256.2617 15.23541292 38200
FLOCK 3P-38             
1 42037U 17008CT  17303.15626849  .00001940  00000-0  84429-4 0  9992
2 42037  97.4811   4.1744 0009345 101.7246 258.5040 15.23423851 39022
FLOCK 3P-39             
1 42038U 17008CU  17302.89191209  .00004135  00000-0  17645-3 0  9994
2 42038  97.4810   3.9034 0009612 102.6301 257.6011 15.23434238 38938
FLOCK 3P-15             
1 42039U 17008CV  17302.89621489  .00001711  00000-0  74895-4 0  9991
2 42039  97.4813   3.9083 0009502 102.6415 257.5884 15.23396451 38212
FLOCK 3P-13             
1 42040U 17008CW  17303.15337502  .00001926  00000-0  83806-4 0  9993
2 42040  97.4816   4.1834 0009306 103.3429 256.8846 15.23442947 38244
FLOCK 3P-55             
1 42041U 17008CX  17302.93431703  .00001923  00000-0  83776-4 0  9990
2 42041  97.4816   4.0120 0009190 106.6755 253.5491 15.23403550 39058
FLOCK 3P-56             
1 42042U 17008CY  17302.91975316  .00004093  00000-0  17287-3 0  9996
2 42042  97.4812   4.0201 0009074 106.3143 253.9093 15.23795828 38844
FLOCK 3P-81             
1 42043U 17008CZ  17302.71991420  .00002186  00000-0  94792-4 0  9997
2 42043  97.4840   3.7779 0010025  89.3066 270.9319 15.23401191 38199
FLOCK 3P-87             
1 42044U 17008DA  17302.72884234  .00001925  00000-0  83878-4 0  9996
2 42044  97.4835   3.7531 0010182  86.6535 273.5866 15.23387737 38347
FLOCK 3P-29             
1 42045U 17008DB  17302.73042471  .00002189  00000-0  94961-4 0  9995
2 42045  97.4818   3.6883 0009826  84.2927 275.9429 15.23390387 38199
FLOCK 3P-82             
1 42046U 17008DC  17303.12509223  .00004001  00000-0  17057-3 0  9998
2 42046  97.4837   4.1499 0010141  86.4436 273.7961 15.23484843 38302
FLOCK 3P-78             
1 42047U 17008DD  17302.85970284  .00002643  00000-0  11408-3 0  9991
2 42047  97.4838   3.8942 0010086  86.3274 273.9116 15.23366984 38196
FLOCK 3P-74             
1 42048U 17008DE  17302.86807589  .00001995  00000-0  86824-4 0  9994
2 42048  97.4841   3.8915 0010376  86.5645 273.6779 15.23385527 38193
FLOCK 3P-31             
1 42049U 17008DF  17302.73826580  .00001938  00000-0  84515-4 0  9995
2 42049  97.4819   3.6806 0009942  85.1549 275.0822 15.23356633 37630
FLOCK 3P-83             
1 42050U 17008DG  17302.87054342  .00001857  00000-0  81037-4 0  9997
2 42050  97.4836   3.8769 0010264  87.4630 272.7782 15.23375808 38923
FLOCK 3P-72             
1 42051U 17008DH  17302.91557428  .00001753  00000-0  76610-4 0  9992
2 42051  97.4843   3.9858 0009750  86.6995 273.5357 15.23401966 36521
LEMUR-2-REDFERN-GOES    
1 42059U 98067LA  17302.90357205  .00028836  00000-0  31049-3 0  9991
2 42059  51.6369  78.8241 0005897  78.0843 282.0812 15.63448859 37041
LEMUR-2-TRUTNA          
1 42067U 98067LC  17302.78348661  .00064859  00000-0  51113-3 0  9991
2 42067  51.6355  74.9990 0003427  64.6197 295.5155 15.70811657 36915
LEMUR-2-AUSTINTACIOUS   
1 42068U 98067LD  17302.95074234  .00032858  00000-0  32989-3 0  9997
2 42068  51.6373  77.6401 0005241  68.3612 291.7941 15.65159600 36998
LEMUR-2-TRUTNAHD        
1 42069U 98067LE  17302.93386566  .00030567  00000-0  32105-3 0  9995
2 42069  51.6378  78.2935 0005097  76.4279 283.7283 15.64056306 37035
HAVELSAT                
1 42700U 98067LH  17302.86162982  .00026688  00000-0  32003-3 0  9999
2 42700  51.6383  83.0528 0004938 109.0399 251.1130 15.60712778 25938
SOMP 2                  
1 42701U 98067LJ  17303.01228427  .00026945  00000-0  32870-3 0  9993
2 42701  51.6379  82.5608 0004959 109.6593 250.4936 15.60256479 25940
COLUMBIA                
1 42702U 98067LK  17302.99346474  .00081904  00000-0  71987-3 0  9991
2 42702  51.6358  79.4184 0001795  89.2100 270.9102 15.68077079 25918
SGSAT                   
1 42703U 98067LL  17302.90226894  .00053942  00000-0  53833-3 0  9997
2 42703  51.6356  81.0574 0001640 354.7268   5.3709 15.65093707 25874
CXBN-2                  
1 42704U 98067LM  17302.76164871  .00025875  00000-0  31508-3 0  9997
2 42704  51.6383  83.8887 0001487  40.1627 319.9476 15.60337349 25835
ICECUBE                 
1 42705U 98067LN  17302.83857110  .00029241  00000-0  33593-3 0  9998
2 42705  51.6407  82.9188 0002072  38.5989 321.5153 15.61786162 25912
PHOENIX                 
1 42706U 98067LP  17303.00174991  .00024229  00000-0  29386-3 0  9994
2 42706  51.6379  82.4928 0000798  71.8432 288.2648 15.60482776 25869
X-CUBESAT               
1 42707U 98067LQ  17302.87037711  .00027030  00000-0  32501-3 0  9993
2 42707  51.6367  83.1059 0000748  71.1118 288.9956 15.60643277 25830
QBEE50-LTU-OC           
1 42708U 98067LR  17302.81268943  .00026204  00000-0  31720-3 0  9995
2 42708  51.6371  83.4711 0000814  71.4796 288.6286 15.60485303 25784
ALTAIR PATHFINDER       
1 42711U 98067LS  17302.85222950  .00015945  00000-0  21120-3 0  9994
2 42711  51.6376  84.4857 0003924  40.8928 319.2358 15.58454283 25485
SHARC                   
1 42712U 98067LT  17302.86316949  .00008368  00000-0  11648-3 0  9993
2 42712  51.6393  84.5695 0002212  52.6163 307.5031 15.57884926 25722
ZA-AEROSAT              
1 42713U 98067LU  17302.86421106  .00022972  00000-0  28991-3 0  9992
2 42713  51.6379  83.8214 0001879  27.1152 332.9939 15.59468750 25497
LINK                    
1 42714U 98067LV  17302.85937136  .00037002  00000-0  42464-3 0  9998
2 42714  51.6365  83.0282 0001624  13.1691 346.9345 15.61692560 25612
CSUNSAT 1               
1 42715U 98067LW  17302.99394939  .00022171  00000-0  27803-3 0  9993
2 42715  51.6384  83.1844 0003855  27.3029 332.8166 15.59656638 25516
UPSAT                   
1 42716U 98067LX  17302.97538692  .00030784  00000-0  35815-3 0  9999
2 42716  51.6379  82.3125 0003169 114.7548 245.3776 15.61428017 25650
SPACECUBE               
1 42717U 98067LY  17303.01909071  .00025696  00000-0  31265-3 0  9990
2 42717  51.6376  82.6035 0003454 113.3466 246.7891 15.60359662 24898
HOOPOE                  
1 42718U 98067LZ  17302.80502077  .00030044  00000-0  35714-3 0  9998
2 42718  51.6378  83.4244 0003292 111.5795 248.5549 15.60880535 24862
CHALLENGER              
1 42721U 98067MA  17302.96283101  .00037593  00000-0  41704-3 0  9995
2 42721  51.6367  82.2168 0005109  86.6523 273.5056 15.62549678 24599
NJUST-1                 
1 42722U 98067MB  17302.95825160  .00020341  00000-0  26012-3 0  9990
2 42722  51.6379  83.6957 0006477  90.6904 269.4831 15.59185859 24577
UNSW-ECO                
1 42723U 98067MC  17302.90174461  .00028743  00000-0  34321-3 0  9993
2 42723  51.6383  83.3212 0005685  88.6407 271.5237 15.60776910 24557
DUTHSAT                 
1 42724U 98067MD  17302.98024453  .00039433  00000-0  44268-3 0  9996
2 42724  51.6377  82.3421 0004380  90.8327 269.3169 15.62224647 24498
LILACSAT-1              
1 42725U 98067ME  17302.88485667  .00025407  00000-0  31713-3 0  9991
2 42725  51.6380  83.9582 0005212  92.6098 267.5492 15.59686740 24466
NSIGHT-1                
1 42726U 98067MF  17302.83456096  .00016995  00000-0  23237-3 0  9995
2 42726  51.6394  85.1263 0006226  94.8239 265.3464 15.57537741 24457
SNUSAT-1                
1 42727U 98067MG  17302.62679745  .00022371  00000-0  28137-3 0  9990
2 42727  51.6370  85.2214 0006795  50.0719 310.0870 15.59556734 24394
QBITO                   
1 42728U 98067MH  17302.85453400  .00026077  00000-0  31906-3 0  9999
2 42728  51.6395  83.7665 0002697 101.4296 258.7000 15.60206091 24273
AALTO-2                 
1 42729U 98067MJ  17302.91811241  .00026607  00000-0  32476-3 0  9990
2 42729  51.6384  83.4325 0002617 100.8742 259.2546 15.60257535 24295
SUSAT                   
1 42730U 98067MK  17302.86530935  .00026081  00000-0  32198-3 0  9991
2 42730  51.6379  83.8260 0002770  97.4539 262.6769 15.59970240 24274
I-INSPIRE II            
1 42731U 98067ML  17302.82673133  .00029344  00000-0  34665-3 0  9992
2 42731  51.6370  83.5556 0005990  32.8927 327.2438 15.61043290 24328
POLYITAN-2-SAU          
1 42732U 98067MM  17302.78360384  .00025414  00000-0  30886-3 0  9994
2 42732  51.6374  84.0194 0006131  33.2768 326.8610 15.60383486 24312
SNUSAT-1B               
1 42733U 98067MN  17302.86522725  .00025852  00000-0  31946-3 0  9997
2 42733  51.6379  83.8173 0006205  37.3362 322.8061 15.59934994 24320
EXALTA-1                
1 42734U 98067MP  17303.02277715  .00030519  00000-0  36192-3 0  9997
2 42734  51.6370  82.6164 0007167  61.9376 298.2341 15.60912981 24304
AOXIANG-1               
1 42735U 98067MQ  17302.88872629  .00022108  00000-0  28090-3 0  9999
2 42735  51.6372  83.9778 0006981  86.8088 273.3703 15.59294940 25696
BEEAGLESAT              
1 42736U 98067MR  17302.81471863  .00024198  00000-0  30292-3 0  9996
2 42736  51.6373  84.2332 0006740  84.9848 275.1914 15.59630726 24378
ATLANTIS                
1 42737U 98067MS  17302.90888102  .00067208  00000-0  63769-3 0  9999
2 42737  51.6349  81.0930 0003918  69.5645 290.5772 15.66260858 24319
LEMUR-2-ANGELA          
1 42752U 17019B   17302.94632735  .00003749  00000-0  14736-3 0  9997
2 42752  51.6406 114.6731 0011274 104.6129 255.6101 15.28121408 21897
LEMUR-2-JENNYBARNA      
1 42753U 17019C   17302.86990152  .00003263  00000-0  12891-3 0  9990
2 42753  51.6405 114.9168 0011234 103.9543 256.2686 15.28389914 21828
LEMUR-2-ROBMOORE        
1 42754U 17019D   17302.95314398  .00004117  00000-0  16093-3 0  9990
2 42754  51.6396 114.7156 0011231 107.4429 252.7779 15.28038500 21873
LEMUR-2-SPIROVISION     
1 42755U 17019E   17302.94421720  .00004544  00000-0  17499-3 0  9993
2 42755  51.6403 114.6563 0011215 107.2138 253.0070 15.28287443 21769
UCLSAT                  
1 42765U 17036A   17302.89860474  .00002253  00000-0  10410-3 0  9991
2 42765  97.4349   1.1083 0012723 156.5362 203.6457 15.21156582 20283
